[{"OBJECT_NAME":"STARLINK-3194","OBJECT_ID":"2021-115AL","EPOCH":"2025-10-02T20:15:52.571808","MEAN_MOTION":15.08837041,"ECCENTRICITY":0.000128,"INCLINATION":53.2155,"RA_OF_ASC_NODE":127.7167,"ARG_OF_PERICENTER":87.0034,"MEAN_ANOMALY":273.1104,"EPHEMERIS_TYPE":0,"CLASSIFICATION_TYPE":"U","NORAD_CAT_ID":49758,"ELEMENT_SET_NO":999,"REV_AT_EPOCH":21184,"BSTAR":9.1943226e-5,"MEAN_MOTION_DOT":1.176e-5,"MEAN_MOTION_DDOT":0},{"OBJECT_NAME":"STARLINK-3204","OBJECT_ID":"2021-115AM","EPOCH":"2025-10-03T00:46:12.263232","MEAN_MOTION":15.08793174,"ECCENTRICITY":0.00015247,"INCLINATION":53.2158,"RA_OF_ASC_NODE":126.8731,"ARG_OF_PERICENTER":78.8936,"MEAN_ANOMALY":281.2228,"EPHEMERIS_TYPE":0,"CLASSIFICATION_TYPE":"U","NORAD_CAT_ID":49759,"ELEMENT_SET_NO":999,"REV_AT_EPOCH":21187,"BSTAR":-0.00032865618,"MEAN_MOTION_DOT":-5.508e-5,"MEAN_MOTION_DDOT":0},{"OBJECT_NAME":"STARLINK-3199","OBJECT_ID":"2021-115AN","EPOCH":"2025-10-02T23:37:14.534400","MEAN_MOTION":15.08842726,"ECCENTRICITY":0.00013873,"INCLINATION":53.2159,"RA_OF_ASC_NODE":127.0884,"ARG_OF_PERICENTER":88.2958,"MEAN_ANOMALY":271.8193,"EPHEMERIS_TYPE":0,"CLASSIFICATION_TYPE":"U","NORAD_CAT_ID":49760,"ELEMENT_SET_NO":999,"REV_AT_EPOCH":21187,"BSTAR":0.00011452954,"MEAN_MOTION_DOT":1.535e-5,"MEAN_MOTION_DDOT":0},{"OBJECT_NAME":"STARLINK-3203","OBJECT_ID":"2021-115AP","EPOCH":"2025-10-02T23:21:20.689632","MEAN_MOTION":15.08841734,"ECCENTRICITY":0.00015271,"INCLINATION":53.2174,"RA_OF_ASC_NODE":127.1405,"ARG_OF_PERICENTER":94.8737,"MEAN_ANOMALY":265.243,"EPHEMERIS_TYPE":0,"CLASSIFICATION_TYPE":"U","NORAD_CAT_ID":49761,"ELEMENT_SET_NO":999,"REV_AT_EPOCH":21186,"BSTAR":7.1592596e-5,"MEAN_MOTION_DOT":8.52e-6,"MEAN_MOTION_DDOT":0},{"OBJECT_NAME":"STARLINK-3195","OBJECT_ID":"2021-115AQ","EPOCH":"2025-10-02T22:12:27.416448","MEAN_MOTION":15.08841715,"ECCENTRICITY":0.00014363,"INCLINATION":53.2157,"RA_OF_ASC_NODE":127.3509,"ARG_OF_PERICENTER":88.3288,"MEAN_ANOMALY":271.7869,"EPHEMERIS_TYPE":0,"CLASSIFICATION_TYPE":"U","NORAD_CAT_ID":49762,"ELEMENT_SET_NO":999,"REV_AT_EPOCH":21186,"BSTAR":6.8203734e-5,"MEAN_MOTION_DOT":7.98e-6,"MEAN_MOTION_DDOT":0},{"OBJECT_NAME":"STARLINK-3198","OBJECT_ID":"2021-115AR","EPOCH":"2025-10-02T23:31:57.664128","MEAN_MOTION":15.08839044,"ECCENTRICITY":0.00012991,"INCLINATION":53.2158,"RA_OF_ASC_NODE":127.1052,"ARG_OF_PERICENTER":95.4955,"MEAN_ANOMALY":264.6186,"EPHEMERIS_TYPE":0,"CLASSIFICATION_TYPE":"U","NORAD_CAT_ID":49763,"ELEMENT_SET_NO":999,"REV_AT_EPOCH":21187,"BSTAR":0.00011803856,"MEAN_MOTION_DOT":1.591e-5,"MEAN_MOTION_DDOT":0},{"OBJECT_NAME":"STARLINK-3227","OBJECT_ID":"2021-115AT","EPOCH":"2025-10-03T02:54:41.230656","MEAN_MOTION":15.08845581,"ECCENTRICITY":0.0001327,"INCLINATION":53.2156,"RA_OF_ASC_NODE":126.4826,"ARG_OF_PERICENTER":84.3995,"MEAN_ANOMALY":275.7149,"EPHEMERIS_TYPE":0,"CLASSIFICATION_TYPE":"U","NORAD_CAT_ID":49765,"ELEMENT_SET_NO":999,"REV_AT_EPOCH":21189,"BSTAR":0.00015357457,"MEAN_MOTION_DOT":2.157e-5,"MEAN_MOTION_DDOT":0},{"OBJECT_NAME":"STARLINK-3190","OBJECT_ID":"2021-115AU","EPOCH":"2025-10-03T00:05:07.371456","MEAN_MOTION":15.08837615,"ECCENTRICITY":0.00015975,"INCLINATION":53.2174,"RA_OF_ASC_NODE":127.0115,"ARG_OF_PERICENTER":98.8635,"MEAN_ANOMALY":261.2538,"EPHEMERIS_TYPE":0,"CLASSIFICATION_TYPE":"U","NORAD_CAT_ID":49766,"ELEMENT_SET_NO":999,"REV_AT_EPOCH":21187,"BSTAR":9.8413721e-5,"MEAN_MOTION_DOT":1.278e-5,"MEAN_MOTION_DDOT":0},{"OBJECT_NAME":"STARLINK-3192","OBJECT_ID":"2021-115AV","EPOCH":"2025-10-02T22:17:45.341664","MEAN_MOTION":15.08838347,"ECCENTRICITY":0.00014731,"INCLINATION":53.2165,"RA_OF_ASC_NODE":127.3346,"ARG_OF_PERICENTER":90.7078,"MEAN_ANOMALY":269.4083,"EPHEMERIS_TYPE":0,"CLASSIFICATION_TYPE":"U","NORAD_CAT_ID":49767,"ELEMENT_SET_NO":999,"REV_AT_EPOCH":21186,"BSTAR":0.00010191431,"MEAN_MOTION_DOT":1.334e-5,"MEAN_MOTION_DDOT":0},{"OBJECT_NAME":"STARLINK-3196","OBJECT_ID":"2021-115AW","EPOCH":"2025-10-03T06:35:53.340288","MEAN_MOTION":15.08834322,"ECCENTRICITY":0.00012332,"INCLINATION":53.2163,"RA_OF_ASC_NODE":125.785,"ARG_OF_PERICENTER":86.1403,"MEAN_ANOMALY":273.973,"EPHEMERIS_TYPE":0,"CLASSIFICATION_TYPE":"U","NORAD_CAT_ID":49768,"ELEMENT_SET_NO":999,"REV_AT_EPOCH":21191,"BSTAR":4.290465e-6,"MEAN_MOTION_DOT":-2.2e-6,"MEAN_MOTION_DDOT":0},{"OBJECT_NAME":"STARLINK-3208","OBJECT_ID":"2021-115AX","EPOCH":"2025-10-03T06:37:17.529312","MEAN_MOTION":15.08832578,"ECCENTRICITY":0.00014068,"INCLINATION":53.2165,"RA_OF_ASC_NODE":125.8272,"ARG_OF_PERICENTER":93.203,"MEAN_ANOMALY":266.9123,"EPHEMERIS_TYPE":0,"CLASSIFICATION_TYPE":"U","NORAD_CAT_ID":49769,"ELEMENT_SET_NO":999,"REV_AT_EPOCH":21191,"BSTAR":1.8998346e-5,"MEAN_MOTION_DOT":1.4e-7,"MEAN_MOTION_DDOT":0},{"OBJECT_NAME":"STARLINK-3191","OBJECT_ID":"2021-115AY","EPOCH":"2025-10-03T06:47:53.782368","MEAN_MOTION":15.08824665,"ECCENTRICITY":0.00011286,"INCLINATION":53.2165,"RA_OF_ASC_NODE":125.7938,"ARG_OF_PERICENTER":92.2613,"MEAN_ANOMALY":267.8508,"EPHEMERIS_TYPE":0,"CLASSIFICATION_TYPE":"U","NORAD_CAT_ID":49770,"ELEMENT_SET_NO":999,"REV_AT_EPOCH":21303,"BSTAR":-5.188058e-5,"MEAN_MOTION_DOT":-1.113e-5,"MEAN_MOTION_DDOT":0},{"OBJECT_NAME":"STARLINK-3201","OBJECT_ID":"2021-115AZ","EPOCH":"2025-10-03T06:46:28.655904","MEAN_MOTION":15.08838619,"ECCENTRICITY":0.00012845,"INCLINATION":53.2139,"RA_OF_ASC_NODE":125.7494,"ARG_OF_PERICENTER":86.4871,"MEAN_ANOMALY":273.6268,"EPHEMERIS_TYPE":0,"CLASSIFICATION_TYPE":"U","NORAD_CAT_ID":49771,"ELEMENT_SET_NO":999,"REV_AT_EPOCH":21191,"BSTAR":7.3568115e-5,"MEAN_MOTION_DOT":8.83e-6,"MEAN_MOTION_DDOT":0},{"OBJECT_NAME":"STARLINK-3317","OBJECT_ID":"2021-125A","EPOCH":"2025-10-03T07:10:23.796192","MEAN_MOTION":15.08828296,"ECCENTRICITY":0.00011816,"INCLINATION":53.215,"RA_OF_ASC_NODE":235.675,"ARG_OF_PERICENTER":99.9835,"MEAN_ANOMALY":260.129,"EPHEMERIS_TYPE":0,"CLASSIFICATION_TYPE":"U","NORAD_CAT_ID":50156,"ELEMENT_SET_NO":999,"REV_AT_EPOCH":21287,"BSTAR":-0.00042431097,"MEAN_MOTION_DOT":-7.032e-5,"MEAN_MOTION_DDOT":0},{"OBJECT_NAME":"STARLINK-3313","OBJECT_ID":"2021-125B","EPOCH":"2025-10-03T08:00:01.999872","MEAN_MOTION":15.86555724,"ECCENTRICITY":8.567e-5,"INCLINATION":53.2123,"RA_OF_ASC_NODE":221.0798,"ARG_OF_PERICENTER":123.5491,"MEAN_ANOMALY":126.6007,"EPHEMERIS_TYPE":0,"CLASSIFICATION_TYPE":"U","NORAD_CAT_ID":50157,"ELEMENT_SET_NO":999,"REV_AT_EPOCH":595,"BSTAR":0.0022458679,"MEAN_MOTION_DOT":0.00622674,"MEAN_MOTION_DDOT":0},{"OBJECT_NAME":"STARLINK-3309","OBJECT_ID":"2021-125C","EPOCH":"2025-10-03T08:00:01.999872","MEAN_MOTION":15.17648556,"ECCENTRICITY":9.121e-5,"INCLINATION":53.2167,"RA_OF_ASC_NODE":245.4003,"ARG_OF_PERICENTER":91.948,"MEAN_ANOMALY":88.7448,"EPHEMERIS_TYPE":0,"CLASSIFICATION_TYPE":"U","NORAD_CAT_ID":50158,"ELEMENT_SET_NO":999,"REV_AT_EPOCH":571,"BSTAR":0.08626602,"MEAN_MOTION_DOT":0.01946761,"MEAN_MOTION_DDOT":0}]
