STARLINK-3194           
1 49758U 21115AL  25275.84435847  .00001176  00000+0  91943-4 0  9991
2 49758  53.2155 127.7167 0001280  87.0034 273.1104 15.08837041211841
STARLINK-3204           
1 49759U 21115AM  25276.03208638 -.00005508  00000+0 -32866-3 0  9993
2 49759  53.2158 126.8731 0001524  78.8936 281.2228 15.08793174211870
STARLINK-3199           
1 49760U 21115AN  25275.98419600  .00001535  00000+0  11453-3 0  9994
2 49760  53.2159 127.0884 0001387  88.2958 271.8193 15.08842726211875
STARLINK-3203           
1 49761U 21115AP  25275.97315613  .00000852  00000+0  71593-4 0  9996
2 49761  53.2174 127.1405 0001527  94.8737 265.2430 15.08841734211865
STARLINK-3195           
1 49762U 21115AQ  25275.92531732  .00000798  00000+0  68204-4 0  9998
2 49762  53.2157 127.3509 0001436  88.3288 271.7869 15.08841715211869
STARLINK-3198           
1 49763U 21115AR  25275.98052852  .00001591  00000+0  11804-3 0  9991
2 49763  53.2158 127.1052 0001299  95.4955 264.6186 15.08839044211875
STARLINK-3227           
1 49765U 21115AT  25276.12131054  .00002157  00000+0  15357-3 0  9998
2 49765  53.2156 126.4826 0001327  84.3995 275.7149 15.08845581211896
STARLINK-3190           
1 49766U 21115AU  25276.00355754  .00001278  00000+0  98414-4 0  9990
2 49766  53.2174 127.0115 0001597  98.8635 261.2538 15.08837615211874
STARLINK-3192           
1 49767U 21115AV  25275.92899701  .00001334  00000+0  10191-3 0  9994
2 49767  53.2165 127.3346 0001473  90.7078 269.4083 15.08838347211866
STARLINK-3196           
1 49768U 21115AW  25276.27492292 -.00000220  00000+0  42905-5 0  9992
2 49768  53.2163 125.7850 0001233  86.1403 273.9730 15.08834322211916
STARLINK-3208           
1 49769U 21115AX  25276.27589733  .00000014  00000+0  18998-4 0  9994
2 49769  53.2165 125.8272 0001406  93.2030 266.9123 15.08832578211914
STARLINK-3191           
1 49770U 21115AY  25276.28326137 -.00001113  00000+0 -51881-4 0  9995
2 49770  53.2165 125.7938 0001128  92.2613 267.8508 15.08824665213031
STARLINK-3201           
1 49771U 21115AZ  25276.28227611  .00000883  00000+0  73568-4 0  9990
2 49771  53.2139 125.7494 0001284  86.4871 273.6268 15.08838619211911
STARLINK-3317           
1 50156U 21125A   25276.29888653 -.00007032  00000+0 -42431-3 0  9999
2 50156  53.2150 235.6750 0001181  99.9835 260.1290 15.08828296212876
STARLINK-3313           
1 50157U 21125B   25276.33335648  .00622674  00000+0  22459-2 0  9996
2 50157  53.2123 221.0798 0000856 123.5491 126.6007 15.86555724  5958
STARLINK-3309           
1 50158U 21125C   25276.33335648  .01946761  00000+0  86266-1 0  9999
2 50158  53.2167 245.4003 0000912  91.9480  88.7448 15.17648556  5716
